54679,ONEWEB-0685,2022,108.94,148.0,+,87.93,Active,1,LEO,USA,UK,Commercial,Communications,Falcon,1 54679U 22166AP  24336.81963296 -.00000060  00000+0 -17593-3 0  9995,2 54679  87.9299 356.0203 0002081  90.4553 269.6820 13.21827313 97126,13.21827313,0.0002081,LEO
54680,ONEWEB-0712,2022,109.37,148.0,+,87.91,Active,1,LEO,USA,UK,Commercial,Communications,Falcon,1 54680U 22166AQ  24336.75852120  .00000060  00000+0  12456-3 0  9994,2 54680  87.9078 340.8201 0002079  73.1417 286.9942 13.16595171 98054,13.16595171,0.0002079,LEO
54681,ONEWEB-0714,2022,108.94,148.0,+,87.93,Active,1,LEO,USA,UK,Commercial,Communications,Falcon,1 54681U 22166AR  24337.35580707 -.00000072  00000+0 -20609-3 0  9995,2 54681  87.9300 355.9028 0002037  91.0254 269.1113 13.21825681 97789,13.21825681,0.0002037,LEO
55140,ONEWEB-0532,2023,109.29,148.0,+,87.91,Active,1,LEO,USA,UK,Commercial,Communications,Falcon,1 55140U 23004A   24336.65007729  .00000051  00000+0  97238-4 0  9996,2 55140  87.9085 117.9249 0001764 114.8999 245.2316 13.17649906 93502,13.17649906,0.0001764,LEO
55141,ONEWEB-0533,2023,109.72,148.0,+,87.89,Active,1,LEO,USA,UK,Commercial,Communications,Falcon,1 55141U 23004B   24337.58952099  .00000210  00000+0  54889-3 0  9990,2 55141  87.8884 102.4790 0001655  99.2427 260.8888 13.12440427 94397,13.12440427,0.0001655,LEO
55142,ONEWEB-0541,2023,109.8,148.0,+,87.89,Active,1,LEO,USA,UK,Commercial,Communications,Falcon,1 55142U 23004C   24337.40918025  .00000043  00000+0  86679-4 0  9990,2 55142  87.8886 132.9865 0001460  95.0088 265.1207 13.11419137 92329,13.11419137,0.000146,LEO
55143,ONEWEB-0543,2023,109.2,148.0,+,87.91,Active,1,LEO,USA,UK,Commercial,Communications,Falcon,1 55143U 23004D   24336.31237315  .00000039  00000+0  66716-4 0  9991,2 55143  87.9103  87.5380 0001719  90.5901 269.5428 13.18684500 95513,13.186845,0.0001719,LEO
55144,ONEWEB-0544,2023,109.2,148.0,+,87.91,Active,1,LEO,USA,UK,Commercial,Communications,Falcon,1 55144U 23004E   24336.76132195  .00000100  00000+0  22122-3 0  9992,2 55144  87.9102  87.4358 0001378 100.6855 259.4432 13.18687177 95571,13.18687177,0.0001378,LEO
